QIANFAN-57              
1 62787U 25016C   25290.75837331  .00000078  00000+0  10167-3 0  9991
2 62787  88.9745 108.9789 0001276  64.5600 295.5683 13.50975537 39647
QIANFAN-58              
1 62788U 25016D   25290.72953499  .00000064  00000+0  80824-4 0  9996
2 62788  88.9714 108.8308 0014920 139.7989 220.4269 13.50975096 39686
QIANFAN-59              
1 62789U 25016E   25290.75420757  .00000075  00000+0  97815-4 0  9996
2 62789  88.9738 108.8886 0015206 143.3668 216.8526 13.50974386 39683
QIANFAN-60              
1 62790U 25016F   25273.45632892  .00000063  00000+0  77135-4 0  9991
2 62790  88.9732 110.6637 0014892 189.3455 170.7422 13.52524324 37336
QIANFAN-61              
1 62791U 25016G   25290.74595520  .00000077  00000+0  99768-4 0  9990
2 62791  88.9786 108.9964 0015786 139.6982 220.5342 13.50974733 39681
QIANFAN-62              
1 62792U 25016H   25290.75020933  .00000078  00000+0  10234-3 0  9994
2 62792  88.9733 108.8947 0017140 140.4560 219.7845 13.50968650 39670
QIANFAN-63              
1 62793U 25016J   25290.77479216  .00000063  00000+0  79364-4 0  9993
2 62793  88.9740 108.8399 0017079 145.4390 214.7875 13.50971684 39711
QIANFAN-64              
1 62794U 25016K   25290.74186301  .00000088  00000+0  11721-3 0  9990
2 62794  88.9726 108.8249 0015182 138.2487 221.9826 13.50973346 39702
